QIANFAN-25              
1 61558U 24185G   25346.15337257  .00000646  00000+0  38636-3 0  9992
2 61558  88.9808  78.2562 0007966 324.3433  35.7216 14.05908157 69423
QIANFAN-26              
1 61559U 24185H   25346.16760242  .00000389  00000+0  37603-3 0  9995
2 61559  88.9813  79.8126 0005959  33.0346 327.1191 13.77812816 68591
QIANFAN-27              
1 61560U 24185J   25346.18769569  .00000933  00000+0  37548-3 0  9993
2 61560  88.9806  77.0084 0005684 296.5778  63.4833 14.27332600 70082
QIANFAN-28              
1 61561U 24185K   25346.17015213  .00001468  00000+0  58611-3 0  9991
2 61561  88.9825  77.0137 0005057 295.4463  64.6208 14.28033813 70091
QIANFAN-29              
1 61562U 24185L   25346.07248615  .00000260  00000+0  38319-3 0  9997
2 61562  88.9790  81.3796 0011227  60.8724 299.3550 13.51010909 67709
QIANFAN-30              
1 61563U 24185M   25346.12093464  .00000160  00000+0  23217-3 0  9994
2 61563  88.9810  80.8997 0008492  50.5520 309.6381 13.49988272 67981
QIANFAN-31              
1 61564U 24185N   25346.16667752  .00000260  00000+0  34357-3 0  9994
2 61564  88.9794  80.6980 0007711  45.7314 314.4473 13.57967095 68080
QIANFAN-32              
1 61565U 24185P   25346.16381065  .00000208  00000+0  30414-3 0  9997
2 61565  88.9853  81.0293 0010914  71.3456 288.8879 13.50735379 67961
